#dP2024  1 17 12  0  0.00000000      96 __u+U IGS20 EXT  IAC
## 2297 302400.00000000   900.00000000 60326 0.5000000000000
+  118   C06C07C08C09C10C11C12C13C14C16C19C20C21C22C23C24C25
+        C26C27C28C29C30C32C33C34C35C36C37C38C39C40C41C42C43
+        C44C45C46E02E03E04E05E07E08E09E10E11E12E13E14E15E18
+        E19E21E24E25E26E27E30E31E33E34E36G01G02G03G04G05G06
+        G07G08G09G10G11G12G13G14G15G16G17G18G19G20G21G22G23
+        G24G25G26G28G29G30G31G32J02J04R01R02R03R04R05R07R08
+        R09R11R12R13R14R15R16R17R18R19R20R21R22R24R25R26  0
++        10  9 11  9 10  9  9 10  7 10  9 10  8  8 10  9  8
++         8  9  9  9  9  8 10  8  8  7  8  7  9  9 10  9  8
++         8  9  8  8  7  7  7  7  7  8  8  9  9  8  8  8  7
++         8  8  8  8  8  8  8  8  7  8  8  8  7  7  7  7  7
++         7  8  7  8  8  8  7  7  8  8  8  9  7  8  8  7  9
++         8  8  8  7  8  7  8  7 10  8  9  7  7  9 10  8 10
++         7  8  8  9  8  9  9  9  8  8  9  9  9  8  9  9  0
%c M  cc GPS ccc cccc cccc cccc cccc ccccc ccccc ccccc ccccc
%c cc cc ccc ccc cccc cccc cccc cccc ccccc ccccc ccccc ccccc
%f  0.0000000  0.000000000  0.00000000000  0.000000000000000
%f  0.0000000  0.000000000  0.00000000000  0.000000000000000
%i    0    0    0    0      0      0      0      0         0
%i    0    0    0    0      0      0      0      0         0
/* IAC                                ULTRA-RAPID PREDICTION
/* S/V CLOCKS ARE ALIGNED TO GNSS TIME                      
/* G:C1WC2W R:C1PC2P E:C1XC5X C:C2IC6I J:C1CC2S             
/* PCV:IGS20_2290 OL/AL:FES2004  NONE     YN ORB:CoN CLK:CoN
*  2024 01 18 10  0  0.00000000
PC06  -6193.219682  38937.247351 -14496.880875     55.199859
PC07  -6832.311929  26747.743092  31952.793729   -656.588497
PC08 -19585.106214  30754.348679 -21357.235265    104.215460
PC09   -150.337832  41582.973182  -4020.520466   -368.680517
PC10   1003.669120  28387.352648  31568.430990    121.342387
PC11   8700.532768 -15699.781738 -21290.890616    364.175909
PC12  17402.743570   4354.796135 -21330.739124    793.151008
PC13 -12204.572384  30899.622348 -25968.806719    408.668260
PC14  18178.874616 -10845.264018  18226.340452     -7.424247
PC16  -6026.387038  38675.382300 -14935.772379   -288.160735
PC19  -8312.670763  14430.012785 -22363.657971   -936.502813
PC20 -24026.361807   6419.603000 -12621.864981    -76.644470
PC21  26596.256218   6271.209601  -5701.215694   -964.025215
PC22  13109.272394  14644.177542 -19819.835412   -143.287454
PC23  -2024.549999 -20638.802861 -18676.315757   -789.073977
PC24  20743.746824 -13734.465248  12591.040139    800.755526
PC25  12192.770895 -24618.927972  -4847.975997    304.655249
PC26  16589.128974   3814.993048  22085.714448   -236.391036
PC27 -18470.537904 -13125.967374  16280.469922    258.428513
PC28 -12735.103900 -24758.953603   1915.278518    196.116150
PC29  -1402.880117  22620.040062  16277.141105    229.758104
PC30 -14866.331838   6087.477600  22814.267170    -16.185236
PC32 -26584.302949  -6148.854450   5842.689637   -555.197176
PC33   8367.948936 -14493.842304  22337.476426   -943.620180
PC34  14091.723941  -7763.106423 -22810.347578    349.739066
PC35  13629.536311  24255.249043  -1871.763266    454.557006
PC36 -13205.522229  24225.644049   4243.337258    -48.231603
PC37 -16251.950920  -4684.361668 -22199.596314   -932.174876
PC38 -24378.750912  31839.032046 -13185.941682    131.210774
PC39  -9015.780430  34699.723690 -21950.855705     -6.690980
PC40 -11744.912467  20333.041682  34999.170125    -52.583825
PC41 -12273.569161 -14840.938047  20246.758351   -880.741243
PC42  24927.446202  -5572.668466  11312.419370   -464.327454
PC43   2223.944430 -22162.584799 -16832.873802     56.878443
PC44  19048.382784  12478.703808 -16118.779658    357.377060
PC45   2155.318309  20407.552886  18911.611123    -63.933516
PC46 -20666.317952  14579.438667 -11855.765917   -116.580009
PE02  21916.744624   5567.362427  19079.160170     96.018552
PE03  24669.042354  15860.291220   4030.178190    -87.787693
PE04 -21947.513637    369.569950 -19854.396587   -306.379931
PE05  12995.632537  22649.700054 -13933.270931   4711.457191
PE07   6778.091394 -15994.496711  23969.374657    -99.019137
PE08  22213.529645    298.849275  19562.704604   -209.837264
PE09  -6792.346218  15813.454535 -24082.791520   -303.770158
PE10 -14059.617447  19417.264944  17365.574096   -595.051020
PE11  -9416.416013  26769.373137   8390.064805   3278.721076
PE12 -16266.480538   9893.904950  22663.451430   -867.844430
PE13   9724.593456 -26452.641224  -9053.486131    -19.937945
PE14  25303.238499  19056.581583  -2590.143247     13.884170
PE15  16229.942245  -9354.228166 -22907.974165    -80.831296
PE18 -16512.473790 -17725.687339  -2582.785072    224.329968
PE19 -23888.270083 -17388.772897  -1833.072855   -789.819100
PE21  -3840.207315 -16490.922487 -24286.123255   -574.479324
PE24 -17766.472948  18192.906107  15152.447212   -548.583306
PE25   3383.687041  16639.255937  24244.212239     -0.354938
PE26  -2836.699648 -27565.535143  10420.366576    342.712595
PE27  17294.137517 -18319.295072 -15532.996224   -252.298346
PE30  28052.877029  -9069.898245   2507.799255   -834.071993
PE31 -28004.524359   9329.733156  -2280.800593    -14.024875
PE33 -12909.628098 -13567.943152  22931.450351      6.143636
PE34  13154.255744  12958.484483 -23132.588760    -89.644537
PE36   2343.702316  27807.665269  -9843.941761   -173.463785
PG01 -12487.369047  17872.699841  14578.375329    166.445566
PG02 -14333.197481  10898.000042  19949.931717   -499.118561
PG03 -23442.196099  11931.033861  -3350.212915    134.161055
PG04 -15275.122415   6116.927612 -20863.335073    269.094805
PG05  24737.365655  -4988.601374  -8612.977772   -158.405561
PG06   7062.994479  20480.776363 -15220.004557    440.539815
PG07  -5161.739763  25639.899136  -2277.789306    -40.210111
PG08 -21072.716101  -1054.597614  16293.253485   -162.669691
PG09  -3405.427984  15900.618327 -21074.637386     62.663943
PG10  -4969.122840 -13991.684880  22217.857097    -69.788828
PG11  12827.405508  10128.029089 -20920.149009   -544.187973
PG12  24148.333271 -10499.526815  -3454.371444   -469.063231
PG13  21427.257676  11619.702795  10608.059728    617.010617
PG14    623.436485  16049.550486  21150.804539    301.847706
PG15  21215.113061  -1292.794724  15564.593356    118.447072
PG16 -23072.227500  -2755.550547 -13606.161433   -381.716048
PG17   8675.384365  20745.902066  14445.139129    719.595772
PG18   4997.991772 -25942.776481  -1430.847129   -534.917439
PG19  16087.830261  20610.880273   5461.712669    428.189925
PG20  18250.159786   4247.231840 -18699.406930    390.942419
PG21 -15243.428207   4996.334563  21505.009474    138.018365
PG22   8244.019879  13375.349854  21817.295289     46.241775
PG23   8722.994950 -17250.193457  18149.825963    137.716467
PG24  14762.632892  -9519.416777  19397.776246   -416.009773
PG25  16186.499248 -16813.250346 -12754.008118    485.666563
PG26 -16050.033220  -8337.029513 -19702.194312    199.212674
PG28  -6622.857778 -22388.000703 -12689.855639   -102.337259
PG29   5765.782566 -14513.446749 -21516.723506   -608.524573
PG30   2128.360887  25254.563808   7595.896258   -443.991054
PG31 -11349.942382 -14686.631201 -19054.265566   -227.374633
PG32 -13174.637199 -20170.928096  11606.144038   -605.924895
PJ02 -31774.951958  25398.882347  16136.727700     -1.255487
PJ04 -28207.984224  21655.394617 -17445.906607     77.255033
PR01  -6069.062035   9672.125739 -22806.165789     74.862866
PR02  12361.173757  12485.765500 -18415.201501    -22.414139
PR03  23859.672186   8247.749400  -3367.252781     92.901601
PR04  21870.304531    -65.312488  13143.241971    219.721344
PR05   8206.492454  -8518.570814  22608.520180    125.515633
PR07 -24117.121418  -7990.348575   2626.813198     73.817011
PR08 -21829.180029    334.725501 -13163.520961    -74.088585
PR09     92.600666 -14951.851344 -20675.389460    165.008673
PR11 -19418.238341  11825.821974 -11545.510970     37.223679
PR12 -14445.261067  19593.156017   7669.808157     35.730952
PR13  -2435.992438  16010.739815  19688.205737    -43.424123
PR14  13362.463042   1484.528790  21684.414727     25.937649
PR15  19675.360824 -12620.289059  10225.989840     82.996478
PR16  14562.254608 -19621.620898  -7374.451842     22.540958
PR17  11913.174073  13623.068449 -17979.409912     53.421013
PR18   9873.342709  -3700.046945 -23207.143887    122.731016
PR19   4290.346464 -17886.826133 -17666.852645   -262.497110
PR20  -5900.131814 -24787.697863   1647.079316   -106.934388
PR21 -11774.199440 -13303.256685  18300.541924    -69.861993
PR22 -10132.383859   4566.462533  22989.448750    103.719186
PR24   7155.810714  24393.172168  -2156.674033    -40.353445
PR25 -11585.675205 -13913.241962  17970.146500     44.917831
PR26 -22203.997711     52.624262 -12516.286403   -202.908184
EOF
